CALSPHERE 1             
1 00900U 64063C   22324.23492019  .00000566  00000+0  59288-3 0  9992
2 00900  90.1843  43.8112 0025132 271.2539 107.4558 13.73975346892059
CALSPHERE 2             
1 00902U 64063E   22323.80118844  .00000032  00000+0  34757-4 0  9990
2 00902  90.1995  46.9914 0020048  60.3945  61.1150 13.52727661679770
LCS 1                   
1 01361U 65034C   22323.62463966  .00000000  00000+0 -10425-2 0  9997
2 01361  32.1454  36.8607 0011537  67.1976 292.9739  9.89301958 80590
TEMPSAT 1               
1 01512U 65065E   22324.18459948  .00000045  00000+0  72663-4 0  9998
2 01512  89.9255 217.4306 0068790 314.4275 198.7697 13.33461909786128
CALSPHERE 4A            
1 01520U 65065H   22323.85254815  .00000096  00000+0  16682-3 0  9990
2 01520  89.9796 129.9960 0069098 184.0610 286.4597 13.35916803788403
OPS 5712 (P/L 160)      
1 02826U 67053A   22323.85461864  .00002455  00000+0  63005-3 0  9995
2 02826  69.9275 284.3242 0003342 187.6086 172.4998 14.51412217875278
OPS 5712 (P/L 153)      
1 02874U 67053H   22323.50535325  .00000017  00000+0  50579-4 0  9999
2 02874  69.9755  33.0276 0004329  90.9833 269.1769 13.96428776824956
SURCAL 150B             
1 02909U 67053J   22324.37864457  .00004576  00000+0  85727-3 0  9991
2 02909  69.9465 264.7672 0004290 227.5499 132.5280 14.65416076886944
RIGIDSPHERE 2 (LCS 4)   
1 05398U 71067E   22323.84714708  .00000478  00000+0  16033-3 0  9991
2 05398  87.6213 340.1432 0061269 231.4104 128.1597 14.34397607686535
COSMOS 2493 (SKRL-756 1)
1 39490U 13078A   22324.49249285  .00001670  00000+0  17089-3 0  9991
2 39490  82.4180  84.6026 0015804 301.3800  58.5871 14.89894526483251
COSMOS 2494 (SKRL-756 2)
1 39491U 13078B   22324.51576062  .00001853  00000+0  18259-3 0  9994
2 39491  82.4185  78.0158 0020095 274.0258  85.8664 14.91381653483596
